{
"type": "FeatureCollection",
"name": "roads_new",
"crs": { "type": "name", "properties": { "name": "urn:ogc:def:crs:OGC:1.3:CRS84" } },
"features": [
{ "type": "Feature", "properties": { "fid": 4949, "handle": 3720153, "block": -1, "etype": 18, "space": 0, "layer": "0_Roads", "olinetype": "bylayer", "linetype": "", "color": "0,0,0,194", "ocolor": 256, "color24": -1, "transparency": 0, "lweight": -1, "linewidth": 0.0, "ltscale": 1.0, "visible": 1, "width": 0.0, "thickness": 0.0, "ext": "(3:0,0,0.1)" }, "geometry": { "type": "LineString", "coordinates": [ [ 56.401527139970916, 58.216792153704866, 0.0 ], [ 56.401472162121244, 58.216923664230244, 0.0 ], [ 56.40175455393598, 58.216958170335801, 0.0 ], [ 56.401825248382018, 58.216827533443293, 0.0 ], [ 56.401527139970916, 58.216792153704866, 0.0 ] ] } },
{ "type": "Feature", "properties": { "fid": 5132, "handle": 3743099, "block": -1, "etype": 18, "space": 0, "layer": "0_Roads", "olinetype": "bylayer", "linetype": "", "color": "0,0,0,194", "ocolor": 256, "color24": -1, "transparency": 0, "lweight": -1, "linewidth": 0.0, "ltscale": 1.0, "visible": 1, "width": 0.0, "thickness": 0.0, "ext": "(3:0,0,0.1)" }, "geometry": { "type": "LineString", "coordinates": [ [ 56.395962898810374, 58.212998090606668, 0.0 ], [ 56.396216037275494, 58.213015105959585, 0.0 ], [ 56.396248278125562, 58.21288151261983, 0.0 ], [ 56.395995140595431, 58.212864497330941, 0.0 ], [ 56.395962898810374, 58.212998090606668, 0.0 ] ] } },
{ "type": "Feature", "properties": { "fid": 5148, "handle": 3749143, "block": -1, "etype": 18, "space": 0, "layer": "0_Roads", "olinetype": "bylayer", "linetype": "", "color": "0,0,0,194", "ocolor": 256, "color24": -1, "transparency": 0, "lweight": -1, "linewidth": 0.0, "ltscale": 1.0, "visible": 1, "width": 0.0, "thickness": 0.0, "ext": "(3:0,0,0.1)" }, "geometry": { "type": "LineString", "coordinates": [ [ 56.396767555597492, 58.215531685996609, 0.0 ], [ 56.396996822486663, 58.215472534298648, 0.0 ], [ 56.397108914311346, 58.215593520740207, 0.0 ], [ 56.396879646828083, 58.215652672637937, 0.0 ], [ 56.396767555597492, 58.215531685996609, 0.0 ] ] } },
{ "type": "Feature", "properties": { "fid": 5222, "handle": 3758200, "block": -1, "etype": 18, "space": 0, "layer": "0_Roads", "olinetype": "bylayer", "linetype": "", "color": "0,0,0,194", "ocolor": 256, "color24": -1, "transparency": 0, "lweight": -1, "linewidth": 0.0, "ltscale": 1.0, "visible": 1, "width": 0.0, "thickness": 0.0, "ext": "(3:0,0,0.1)" }, "geometry": { "type": "LineString", "coordinates": [ [ 56.393122866402877, 58.210592477686482, 0.0 ], [ 56.39323574511733, 58.210713256276591, 0.0 ], [ 56.393006903081293, 58.210772831643631, 0.0 ], [ 56.392894024955396, 58.210652052852652, 0.0 ], [ 56.393122866402877, 58.210592477686482, 0.0 ] ] } },
{ "type": "Feature", "properties": { "fid": 5233, "handle": 3759482, "block": -1, "etype": 18, "space": 0, "layer": "0_Roads", "olinetype": "bylayer", "linetype": "", "color": "0,0,0,194", "ocolor": 256, "color24": -1, "transparency": 0, "lweight": -1, "linewidth": 0.0, "ltscale": 1.0, "visible": 1, "width": 0.0, "thickness": 0.0, "ext": "(3:0,0,0.1)" }, "geometry": { "type": "LineString", "coordinates": [ [ 56.392756316809269, 58.211601587423182, 0.0 ], [ 56.392507780148627, 58.211632102438067, 0.0 ], [ 56.392449961874021, 58.211500932505629, 0.0 ], [ 56.392672075745622, 58.211410475897871, 0.0 ], [ 56.392756316809269, 58.211601587423182, 0.0 ] ] } },
{ "type": "Feature", "properties": { "fid": 5235, "handle": 3759501, "block": -1, "etype": 18, "space": 0, "layer": "0_Roads", "olinetype": "bylayer", "linetype": "", "color": "0,0,0,194", "ocolor": 256, "color24": -1, "transparency": 0, "lweight": -1, "linewidth": 0.0, "ltscale": 1.0, "visible": 1, "width": 0.0, "thickness": 0.0, "ext": "(3:0,0,0.1)" }, "geometry": { "type": "LineString", "coordinates": [ [ 56.391221626529038, 58.211962434596209, 0.0 ], [ 56.391158043948245, 58.212092859505226, 0.0 ], [ 56.390910915743468, 58.212059302700467, 0.0 ], [ 56.390974499169914, 58.21192887791419, 0.0 ], [ 56.391221626529038, 58.211962434596209, 0.0 ] ] } },
{ "type": "Feature", "properties": { "fid": 5237, "handle": 3760368, "block": -1, "etype": 18, "space": 0, "layer": "0_Roads", "olinetype": "bylayer", "linetype": "", "color": "0,0,0,194", "ocolor": 256, "color24": -1, "transparency": 0, "lweight": -1, "linewidth": 0.0, "ltscale": 1.0, "visible": 1, "width": 0.0, "thickness": 0.0, "ext": "(3:0,0,0.1)" }, "geometry": { "type": "LineString", "coordinates": [ [ 56.39107310687654, 58.21282312669355, 0.0 ], [ 56.390945766439977, 58.212939832854715, 0.0 ], [ 56.390724627430536, 58.212872628663249, 0.0 ], [ 56.390781902845063, 58.212734794441204, 0.0 ], [ 56.39107310687654, 58.21282312669355, 0.0 ] ] } },
{ "type": "Feature", "properties": { "fid": 5238, "handle": 3760647, "block": -1, "etype": 18, "space": 0, "layer": "0_Roads", "olinetype": "bylayer", "linetype": "", "color": "0,0,0,194", "ocolor": 256, "color24": -1, "transparency": 0, "lweight": -1, "linewidth": 0.0, "ltscale": 1.0, "visible": 1, "width": 0.0, "thickness": 0.0, "ext": "(3:0,0,0.1)" }, "geometry": { "type": "LineString", "coordinates": [ [ 56.397030658810849, 58.217749978702152, 0.0 ], [ 56.396897683597501, 58.217864927538365, 0.0 ], [ 56.397115000698015, 58.217935544940204, 0.0 ], [ 56.397293435524226, 58.2178346210545, 0.0 ], [ 56.397030658810849, 58.217749978702152, 0.0 ] ] } },
{ "type": "Feature", "properties": { "fid": 5240, "handle": 3761969, "block": -1, "etype": 18, "space": 0, "layer": "0_Roads", "olinetype": "bylayer", "linetype": "", "color": "0,0,0,194", "ocolor": 256, "color24": -1, "transparency": 0, "lweight": -1, "linewidth": 0.0, "ltscale": 1.0, "visible": 1, "width": 0.0, "thickness": 0.0, "ext": "(3:0,0,0.1)" }, "geometry": { "type": "LineString", "coordinates": [ [ 56.394503931903209, 58.219826951326162, 0.0 ], [ 56.394608545537181, 58.219704111126063, 0.0 ], [ 56.394841353075748, 58.219759309899104, 0.0 ], [ 56.394736740082884, 58.219882150289131, 0.0 ], [ 56.394503931903209, 58.219826951326162, 0.0 ] ] } },
{ "type": "Feature", "properties": { "fid": 5241, "handle": 3762028, "block": -1, "etype": 18, "space": 0, "layer": "0_Roads", "olinetype": "bylayer", "linetype": "", "color": "0,0,0,194", "ocolor": 256, "color24": -1, "transparency": 0, "lweight": -1, "linewidth": 0.0, "ltscale": 1.0, "visible": 1, "width": 0.0, "thickness": 0.0, "ext": "(3:0,0,0.1)" }, "geometry": { "type": "LineString", "coordinates": [ [ 56.394355182603512, 58.220332153122698, 0.0 ], [ 56.394435893953649, 58.220204391469906, 0.0 ], [ 56.394678031964446, 58.220246977668324, 0.0 ], [ 56.394597321387032, 58.220374739473627, 0.0 ], [ 56.394355182603512, 58.220332153122698, 0.0 ] ] } },
{ "type": "Feature", "properties": { "fid": 5242, "handle": 3762029, "block": -1, "etype": 18, "space": 0, "layer": "0_Roads", "olinetype": "bylayer", "linetype": "", "color": "0,0,0,194", "ocolor": 256, "color24": -1, "transparency": 0, "lweight": -1, "linewidth": 0.0, "ltscale": 1.0, "visible": 1, "width": 0.0, "thickness": 0.0, "ext": "(3:0,0,0.1)" }, "geometry": { "type": "LineString", "coordinates": [ [ 56.394118738228173, 58.220865271267186, 0.0 ], [ 56.394197764418131, 58.220737216471257, 0.0 ], [ 56.394440461651712, 58.22077891288437, 0.0 ], [ 56.394361436242505, 58.22090696782999, 0.0 ], [ 56.394118738228173, 58.220865271267186, 0.0 ] ] } },
{ "type": "Feature", "properties": { "fid": 5243, "handle": 3762031, "block": -1, "etype": 18, "space": 0, "layer": "0_Roads", "olinetype": "bylayer", "linetype": "", "color": "0,0,0,194", "ocolor": 256, "color24": -1, "transparency": 0, "lweight": -1, "linewidth": 0.0, "ltscale": 1.0, "visible": 1, "width": 0.0, "thickness": 0.0, "ext": "(3:0,0,0.1)" }, "geometry": { "type": "LineString", "coordinates": [ [ 56.393773219809582, 58.221478981990252, 0.0 ], [ 56.393849112195106, 58.221350400345948, 0.0 ], [ 56.39409281215417, 58.221390442570865, 0.0 ], [ 56.39401692056385, 58.221519024359495, 0.0 ], [ 56.393773219809582, 58.221478981990252, 0.0 ] ] } },
{ "type": "Feature", "properties": { "fid": 5321, "handle": 3773173, "block": -1, "etype": 18, "space": 0, "layer": "0_Roads", "olinetype": "bylayer", "linetype": "", "color": "0,0,0,194", "ocolor": 256, "color24": -1, "transparency": 0, "lweight": -1, "linewidth": 0.0, "ltscale": 1.0, "visible": 1, "width": 0.0, "thickness": 0.0, "ext": "(3:0,0,0.1)" }, "geometry": { "type": "LineString", "coordinates": [ [ 56.402358477178758, 58.215792055527288, 0.0 ], [ 56.402613587819268, 58.215795687529393, 0.0 ], [ 56.40262046993, 58.21566106401535, 0.0 ], [ 56.402365360254308, 58.215657432027342, 0.0 ], [ 56.402358477178758, 58.215792055527288, 0.0 ] ] } }
]
}
